[{"OBJECT_NAME":"STARLINK-36285","OBJECT_ID":"2026-068Y","EPOCH":"2026-04-27T14:06:35.521632","MEAN_MOTION":15.73381898,"ECCENTRICITY":5.03e-5,"INCLINATION":53.1595,"RA_OF_ASC_NODE":264.1286,"ARG_OF_PERICENTER":68.8265,"MEAN_ANOMALY":291.2809,"EPHEMERIS_TYPE":0,"CLASSIFICATION_TYPE":"U","NORAD_CAT_ID":68530,"ELEMENT_SET_NO":999,"REV_AT_EPOCH":440,"BSTAR":-0.00687,"MEAN_MOTION_DOT":-0.00876443,"MEAN_MOTION_DDOT":0},{"OBJECT_NAME":"STARLINK-36294","OBJECT_ID":"2026-068Z","EPOCH":"2026-04-27T20:00:03.000384","MEAN_MOTION":15.70702776,"ECCENTRICITY":7.64e-5,"INCLINATION":53.1594,"RA_OF_ASC_NODE":262.9279,"ARG_OF_PERICENTER":55.5893,"MEAN_ANOMALY":249.0786,"EPHEMERIS_TYPE":0,"CLASSIFICATION_TYPE":"U","NORAD_CAT_ID":68531,"ELEMENT_SET_NO":999,"REV_AT_EPOCH":566,"BSTAR":-0.017188,"MEAN_MOTION_DOT":-0.01924343,"MEAN_MOTION_DDOT":0},{"OBJECT_NAME":"STARLINK-36249","OBJECT_ID":"2026-068AA","EPOCH":"2026-04-27T20:00:03.000384","MEAN_MOTION":15.61167103,"ECCENTRICITY":0.0001065,"INCLINATION":53.1601,"RA_OF_ASC_NODE":263.0792,"ARG_OF_PERICENTER":85.1408,"MEAN_ANOMALY":144.7453,"EPHEMERIS_TYPE":0,"CLASSIFICATION_TYPE":"U","NORAD_CAT_ID":68532,"ELEMENT_SET_NO":999,"REV_AT_EPOCH":566,"BSTAR":-0.032693,"MEAN_MOTION_DOT":-0.02456885,"MEAN_MOTION_DDOT":0},{"OBJECT_NAME":"STARLINK-36252","OBJECT_ID":"2026-068AB","EPOCH":"2026-04-24T22:14:06.295200","MEAN_MOTION":15.80920524,"ECCENTRICITY":0.0002038,"INCLINATION":53.1574,"RA_OF_ASC_NODE":277.3973,"ARG_OF_PERICENTER":48.8631,"MEAN_ANOMALY":311.2567,"EPHEMERIS_TYPE":0,"CLASSIFICATION_TYPE":"U","NORAD_CAT_ID":68533,"ELEMENT_SET_NO":999,"REV_AT_EPOCH":398,"BSTAR":0.0015051,"MEAN_MOTION_DOT":0.00307875,"MEAN_MOTION_DDOT":0},{"OBJECT_NAME":"STARLINK-36299","OBJECT_ID":"2026-068AC","EPOCH":"2026-04-27T14:10:45.183072","MEAN_MOTION":15.67886307,"ECCENTRICITY":3.31e-5,"INCLINATION":53.1594,"RA_OF_ASC_NODE":264.1476,"ARG_OF_PERICENTER":80.1224,"MEAN_ANOMALY":279.983,"EPHEMERIS_TYPE":0,"CLASSIFICATION_TYPE":"U","NORAD_CAT_ID":68534,"ELEMENT_SET_NO":999,"REV_AT_EPOCH":440,"BSTAR":-0.01119,"MEAN_MOTION_DOT":-0.01139448,"MEAN_MOTION_DDOT":0},{"OBJECT_NAME":"STARLINK-37234","OBJECT_ID":"2026-068AD","EPOCH":"2026-04-24T17:36:45.160128","MEAN_MOTION":15.8029169,"ECCENTRICITY":0.0002272,"INCLINATION":53.1565,"RA_OF_ASC_NODE":278.3275,"ARG_OF_PERICENTER":183.5518,"MEAN_ANOMALY":176.5488,"EPHEMERIS_TYPE":0,"CLASSIFICATION_TYPE":"U","NORAD_CAT_ID":68535,"ELEMENT_SET_NO":999,"REV_AT_EPOCH":395,"BSTAR":-0.0041365,"MEAN_MOTION_DOT":-0.00731799,"MEAN_MOTION_DDOT":0},{"OBJECT_NAME":"STARLINK-37173","OBJECT_ID":"2026-068AE","EPOCH":"2026-04-24T22:10:08.436000","MEAN_MOTION":15.79340527,"ECCENTRICITY":7.41e-5,"INCLINATION":53.1568,"RA_OF_ASC_NODE":277.3776,"ARG_OF_PERICENTER":13.3487,"MEAN_ANOMALY":346.7555,"EPHEMERIS_TYPE":0,"CLASSIFICATION_TYPE":"U","NORAD_CAT_ID":68536,"ELEMENT_SET_NO":999,"REV_AT_EPOCH":398,"BSTAR":-0.0092816,"MEAN_MOTION_DOT":-0.01504677,"MEAN_MOTION_DDOT":0},{"OBJECT_NAME":"SWC-1","OBJECT_ID":"2026-069C","EPOCH":"2026-04-17T12:14:33.921312","MEAN_MOTION":1.01840683,"ECCENTRICITY":0.8357664,"INCLINATION":28.3533,"RA_OF_ASC_NODE":357.7706,"ARG_OF_PERICENTER":80.9928,"MEAN_ANOMALY":279.0715,"EPHEMERIS_TYPE":0,"CLASSIFICATION_TYPE":"U","NORAD_CAT_ID":68540,"ELEMENT_SET_NO":999,"REV_AT_EPOCH":16,"BSTAR":0,"MEAN_MOTION_DOT":-3.51e-6,"MEAN_MOTION_DDOT":0},{"OBJECT_NAME":"STARLINK-37326","OBJECT_ID":"2026-070A","EPOCH":"2026-04-27T13:32:14.262144","MEAN_MOTION":15.80912746,"ECCENTRICITY":9.66e-5,"INCLINATION":53.1571,"RA_OF_ASC_NODE":139.4482,"ARG_OF_PERICENTER":69.0124,"MEAN_ANOMALY":291.1002,"EPHEMERIS_TYPE":0,"CLASSIFICATION_TYPE":"U","NORAD_CAT_ID":68542,"ELEMENT_SET_NO":999,"REV_AT_EPOCH":398,"BSTAR":0.0012609,"MEAN_MOTION_DOT":0.00256151,"MEAN_MOTION_DDOT":0},{"OBJECT_NAME":"STARLINK-36308","OBJECT_ID":"2026-070B","EPOCH":"2026-04-27T08:58:02.043264","MEAN_MOTION":15.80926322,"ECCENTRICITY":0.0001486,"INCLINATION":53.1578,"RA_OF_ASC_NODE":140.3924,"ARG_OF_PERICENTER":99.9476,"MEAN_ANOMALY":260.1715,"EPHEMERIS_TYPE":0,"CLASSIFICATION_TYPE":"U","NORAD_CAT_ID":68543,"ELEMENT_SET_NO":999,"REV_AT_EPOCH":395,"BSTAR":0.0011992,"MEAN_MOTION_DOT":0.00243376,"MEAN_MOTION_DDOT":0},{"OBJECT_NAME":"STARLINK-37263","OBJECT_ID":"2026-070C","EPOCH":"2026-04-27T07:24:42.350400","MEAN_MOTION":15.81336447,"ECCENTRICITY":0.0002333,"INCLINATION":53.1571,"RA_OF_ASC_NODE":140.6991,"ARG_OF_PERICENTER":77.886,"MEAN_ANOMALY":282.2424,"EPHEMERIS_TYPE":0,"CLASSIFICATION_TYPE":"U","NORAD_CAT_ID":68544,"ELEMENT_SET_NO":999,"REV_AT_EPOCH":394,"BSTAR":0.0018489,"MEAN_MOTION_DOT":0.00389389,"MEAN_MOTION_DDOT":0},{"OBJECT_NAME":"STARLINK-37289","OBJECT_ID":"2026-070D","EPOCH":"2026-04-27T11:59:01.267872","MEAN_MOTION":15.80980408,"ECCENTRICITY":0.000106,"INCLINATION":53.1571,"RA_OF_ASC_NODE":139.7536,"ARG_OF_PERICENTER":98.0255,"MEAN_ANOMALY":262.0888,"EPHEMERIS_TYPE":0,"CLASSIFICATION_TYPE":"U","NORAD_CAT_ID":68545,"ELEMENT_SET_NO":999,"REV_AT_EPOCH":397,"BSTAR":0.001598,"MEAN_MOTION_DOT":0.00328619,"MEAN_MOTION_DDOT":0},{"OBJECT_NAME":"STARLINK-37290","OBJECT_ID":"2026-070E","EPOCH":"2026-04-27T05:52:42.930048","MEAN_MOTION":15.80947145,"ECCENTRICITY":0.0001699,"INCLINATION":53.1576,"RA_OF_ASC_NODE":141.0095,"ARG_OF_PERICENTER":108.5138,"MEAN_ANOMALY":251.6069,"EPHEMERIS_TYPE":0,"CLASSIFICATION_TYPE":"U","NORAD_CAT_ID":68546,"ELEMENT_SET_NO":999,"REV_AT_EPOCH":393,"BSTAR":0.0012405,"MEAN_MOTION_DOT":0.00252287,"MEAN_MOTION_DDOT":0},{"OBJECT_NAME":"STARLINK-37245","OBJECT_ID":"2026-070F","EPOCH":"2026-04-26T13:09:09.195840","MEAN_MOTION":15.80963781,"ECCENTRICITY":0.0001515,"INCLINATION":53.1578,"RA_OF_ASC_NODE":144.4851,"ARG_OF_PERICENTER":82.7807,"MEAN_ANOMALY":277.3388,"EPHEMERIS_TYPE":0,"CLASSIFICATION_TYPE":"U","NORAD_CAT_ID":68547,"ELEMENT_SET_NO":999,"REV_AT_EPOCH":382,"BSTAR":0.00091127221,"MEAN_MOTION_DOT":0.00183805,"MEAN_MOTION_DDOT":0},{"OBJECT_NAME":"STARLINK-37145","OBJECT_ID":"2026-070G","EPOCH":"2026-04-26T13:10:13.866240","MEAN_MOTION":15.80998679,"ECCENTRICITY":0.00013,"INCLINATION":53.1581,"RA_OF_ASC_NODE":144.4899,"ARG_OF_PERICENTER":115.1234,"MEAN_ANOMALY":244.9924,"EPHEMERIS_TYPE":0,"CLASSIFICATION_TYPE":"U","NORAD_CAT_ID":68548,"ELEMENT_SET_NO":999,"REV_AT_EPOCH":382,"BSTAR":0.0013502,"MEAN_MOTION_DOT":0.00276073,"MEAN_MOTION_DDOT":0},{"OBJECT_NAME":"STARLINK-36204","OBJECT_ID":"2026-070H","EPOCH":"2026-04-27T11:53:37.476960","MEAN_MOTION":15.80930583,"ECCENTRICITY":0.0001413,"INCLINATION":53.1573,"RA_OF_ASC_NODE":139.729,"ARG_OF_PERICENTER":65.5874,"MEAN_ANOMALY":294.5297,"EPHEMERIS_TYPE":0,"CLASSIFICATION_TYPE":"U","NORAD_CAT_ID":68549,"ELEMENT_SET_NO":999,"REV_AT_EPOCH":397,"BSTAR":0.00098308,"MEAN_MOTION_DOT":0.00198377,"MEAN_MOTION_DDOT":0},{"OBJECT_NAME":"STARLINK-36304","OBJECT_ID":"2026-070J","EPOCH":"2026-04-27T13:22:29.004096","MEAN_MOTION":15.80978037,"ECCENTRICITY":0.000266,"INCLINATION":53.1573,"RA_OF_ASC_NODE":139.4016,"ARG_OF_PERICENTER":156.6484,"MEAN_ANOMALY":203.466,"EPHEMERIS_TYPE":0,"CLASSIFICATION_TYPE":"U","NORAD_CAT_ID":68550,"ELEMENT_SET_NO":999,"REV_AT_EPOCH":398,"BSTAR":0.0010015,"MEAN_MOTION_DOT":0.00202672,"MEAN_MOTION_DDOT":0}]
