STARLINK-36285          
1 68530U 26068Y   26117.58791113 -.00876443  00000+0 -68700-2 0  9992
2 68530  53.1595 264.1286 0000503  68.8265 291.2809 15.73381898  4406
STARLINK-36294          
1 68531U 26068Z   26117.83336806 -.01924343  00000+0 -17188-1 0  9992
2 68531  53.1594 262.9279 0000764  55.5893 249.0786 15.70702776  5666
STARLINK-36249          
1 68532U 26068AA  26117.83336806 -.02456885  00000+0 -32693-1 0  9993
2 68532  53.1601 263.0792 0001065  85.1408 144.7453 15.61167103  5665
STARLINK-36252          
1 68533U 26068AB  26114.92646175  .00307875  00000+0  15051-2 0  9994
2 68533  53.1574 277.3973 0002038  48.8631 311.2567 15.80920524  3984
STARLINK-36299          
1 68534U 26068AC  26117.59080073 -.01139448  00000+0 -11190-1 0  9991
2 68534  53.1594 264.1476 0000331  80.1224 279.9830 15.67886307  4406
STARLINK-37234          
1 68535U 26068AD  26114.73385602 -.00731799  00000+0 -41365-2 0  9995
2 68535  53.1565 278.3275 0002272 183.5518 176.5488 15.80291690  3959
STARLINK-37173          
1 68536U 26068AE  26114.92370875 -.01504677  00000+0 -92816-2 0  9994
2 68536  53.1568 277.3776 0000741  13.3487 346.7555 15.79340527  3983
SWC-1                   
1 68540U 26069C   26107.51011483 -.00000351  00000+0  00000+0 0  9993
2 68540  28.3533 357.7706 8357664  80.9928 279.0715  1.01840683   168
STARLINK-37326          
1 68542U 26070A   26117.56405396  .00256151  00000+0  12609-2 0  9994
2 68542  53.1571 139.4482 0000966  69.0124 291.1002 15.80912746  3981
STARLINK-36308          
1 68543U 26070B   26117.37363476  .00243376  00000+0  11992-2 0  9995
2 68543  53.1578 140.3924 0001486  99.9476 260.1715 15.80926322  3950
STARLINK-37263          
1 68544U 26070C   26117.30882350  .00389389  00000+0  18489-2 0  9999
2 68544  53.1571 140.6991 0002333  77.8860 282.2424 15.81336447  3940
STARLINK-37289          
1 68545U 26070D   26117.49932023  .00328619  00000+0  15980-2 0  9995
2 68545  53.1571 139.7536 0001060  98.0255 262.0888 15.80980408  3978
STARLINK-37290          
1 68546U 26070E   26117.24494132  .00252287  00000+0  12405-2 0  9999
2 68546  53.1576 141.0095 0001699 108.5138 251.6069 15.80947145  3937
STARLINK-37245          
1 68547U 26070F   26116.54802310  .00183805  00000+0  91127-3 0  9991
2 68547  53.1578 144.4851 0001515  82.7807 277.3388 15.80963781  3821
STARLINK-37145          
1 68548U 26070G   26116.54877160  .00276073  00000+0  13502-2 0  9997
2 68548  53.1581 144.4899 0001300 115.1234 244.9924 15.80998679  3825
STARLINK-36204          
1 68549U 26070H   26117.49557265  .00198377  00000+0  98308-3 0  9992
2 68549  53.1573 139.7290 0001413  65.5874 294.5297 15.80930583  3972
STARLINK-36304          
1 68550U 26070J   26117.55728014  .00202672  00000+0  10015-2 0  9995
2 68550  53.1573 139.4016 0002660 156.6484 203.4660 15.80978037  3981
